[
    {
        "Altitude(m)": 703623.4721136914,
        "Argument of Periapsis(deg)": 0.011390121186627068,
        "Eccentricity": 0.0,
        "Inclination(deg)": 45.0,
        "Latitude(deg)": 25.611004512252467,
        "Longitude(deg)": 165.75096384735335,
        "Mean Anomaly(deg)": 142.44231664748082,
        "RAAN(deg)": 114.9892480585418,
        "Satellite Name": "Constellation 1 514",
        "Satellite Number": 514,
        "Semi-Major Axis(m)": 7083131.272910544,
        "Time(s)": 190
    },
    {
        "Altitude(m)": 703618.5396444555,
        "Argument of Periapsis(deg)": 0.011450069192872472,
        "Eccentricity": 0.0,
        "Inclination(deg)": 45.0,
        "Latitude(deg)": 25.573061298888646,
        "Longitude(deg)": 165.79949761796368,
        "Mean Anomaly(deg)": 142.50301778773067,
        "RAAN(deg)": 114.98919146937621,
        "Satellite Name": "Constellation 1 514",
        "Satellite Number": 514,
        "Semi-Major Axis(m)": 7083131.272910544,
        "Time(s)": 191
    },
    {
        "Altitude(m)": 703613.6161422512,
        "Argument of Periapsis(deg)": 0.01151001719911788,
        "Eccentricity": 0.0,
        "Inclination(deg)": 45.0,
        "Latitude(deg)": 25.535098977369707,
        "Longitude(deg)": 165.84799821860918,
        "Mean Anomaly(deg)": 142.56371892798063,
        "RAAN(deg)": 114.98913488021066,
        "Satellite Name": "Constellation 1 514",
        "Satellite Number": 514,
        "Semi-Major Axis(m)": 7083131.272910544,
        "Time(s)": 192
    },
    {
        "Altitude(m)": 703608.701644417,
        "Argument of Periapsis(deg)": 0.011569965205363285,
        "Eccentricity": 0.0,
        "Inclination(deg)": 45.0,
        "Latitude(deg)": 25.497117591707394,
        "Longitude(deg)": 165.89646554185768,
        "Mean Anomaly(deg)": 142.62442006823056,
        "RAAN(deg)": 114.98907829104509,
        "Satellite Name": "Constellation 1 514",
        "Satellite Number": 514,
        "Semi-Major Axis(m)": 7083131.272910544,
        "Time(s)": 193
    },
    {
        "Altitude(m)": 703603.7961882583,
        "Argument of Periapsis(deg)": 0.01162991321160869,
        "Eccentricity": 0.0,
        "Inclination(deg)": 45.0,
        "Latitude(deg)": 25.45911718584836,
        "Longitude(deg)": 165.9448999845671,
        "Mean Anomaly(deg)": 142.6851212084804,
        "RAAN(deg)": 114.98902170187951,
        "Satellite Name": "Constellation 1 514",
        "Satellite Number": 514,
        "Semi-Major Axis(m)": 7083131.272910544,
        "Time(s)": 194
    },
    {
        "Altitude(m)": 703598.8998110589,
        "Argument of Periapsis(deg)": 0.011689861217854095,
        "Eccentricity": 0.0,
        "Inclination(deg)": 45.0,
        "Latitude(deg)": 25.421097803675586,
        "Longitude(deg)": 165.99330143930257,
        "Mean Anomaly(deg)": 142.74582234873031,
        "RAAN(deg)": 114.98896511271396,
        "Satellite Name": "Constellation 1 514",
        "Satellite Number": 514,
        "Semi-Major Axis(m)": 7083131.272910544,
        "Time(s)": 195
    },
    {
        "Altitude(m)": 703594.0125500741,
        "Argument of Periapsis(deg)": 0.0117498092240995,
        "Eccentricity": 0.0,
        "Inclination(deg)": 45.0,
        "Latitude(deg)": 25.38305948900795,
        "Longitude(deg)": 166.04166996672436,
        "Mean Anomaly(deg)": 142.80652348898016,
        "RAAN(deg)": 114.98890852354836,
        "Satellite Name": "Constellation 1 514",
        "Satellite Number": 514,
        "Semi-Major Axis(m)": 7083131.272910544,
        "Time(s)": 196
    },
    {
        "Altitude(m)": 703589.1344425224,
        "Argument of Periapsis(deg)": 0.011809757230344905,
        "Eccentricity": 0.0,
        "Inclination(deg)": 45.0,
        "Latitude(deg)": 25.345002285600213,
        "Longitude(deg)": 166.09000562749029,
        "Mean Anomaly(deg)": 142.86722462923015,
        "RAAN(deg)": 114.98885193438281,
        "Satellite Name": "Constellation 1 514",
        "Satellite Number": 514,
        "Semi-Major Axis(m)": 7083131.272910544,
        "Time(s)": 197
    },
    {
        "Altitude(m)": 703584.2655256056,
        "Argument of Periapsis(deg)": 0.011869705236590313,
        "Eccentricity": 0.0,
        "Inclination(deg)": 45.0,
        "Latitude(deg)": 25.306926237143315,
        "Longitude(deg)": 166.13830848225555,
        "Mean Anomaly(deg)": 142.92792576948,
        "RAAN(deg)": 114.98879534521724,
        "Satellite Name": "Constellation 1 514",
        "Satellite Number": 514,
        "Semi-Major Axis(m)": 7083131.272910544,
        "Time(s)": 198
    },
    {
        "Altitude(m)": 703579.4058364894,
        "Argument of Periapsis(deg)": 0.011929653242835719,
        "Eccentricity": 0.0,
        "Inclination(deg)": 45.0,
        "Latitude(deg)": 25.268831387264203,
        "Longitude(deg)": 166.1865785916727,
        "Mean Anomaly(deg)": 142.9886269097299,
        "RAAN(deg)": 114.98873875605166,
        "Satellite Name": "Constellation 1 514",
        "Satellite Number": 514,
        "Semi-Major Axis(m)": 7083131.272910544,
        "Time(s)": 199
    }
]